ELSA-D CLIENT           
1 51288U 21022AQ  23104.99342346  .00011318  00000+0  66140-3 0  9994
2 51288  97.5013   3.8454 0016857 178.1163 182.0134 15.11934817 67056
CSG-2                   
1 51444U 22008A   23105.13194568  .00000107  00000+0  19989-4 0  9995
2 51444  97.8875 289.5201 0001289  90.6233 269.5193 14.82151764 64907
STARLINK-3167           
1 51460U 22010E   23104.71162249  .00000508  00000+0  50003-4 0  9997
2 51460  53.2179 357.5448 0001100  89.8487 270.2631 15.08858204 67248
STARLINK-3181           
1 51461U 22010F   23104.99498024 -.00000424  00000+0 -85482-5 0  9990
2 51461  53.2184 356.2746 0001178  90.7332 269.3795 15.08842213 67341
STARLINK-3166           
1 51462U 22010G   23104.92601512  .00002105  00000+0  15027-3 0  9994
2 51462  53.2171 356.5913 0001063  93.0933 267.0181 15.08847658 67301
STARLINK-3419           
1 51463U 22010H   23104.10442002  .00004714  00000+0  31399-3 0  9990
2 51463  53.2178   0.2692 0001080  96.4298 263.6817 15.08848222 66402
STARLINK-3189           
1 51464U 22010J   23104.12281519  .00004190  00000+0  28108-3 0  9999
2 51464  53.2176   0.1849 0001360 101.8339 258.2806 15.08850850 67210
STARLINK-3401           
1 51465U 22010K   23103.98665764  .00004261  00000+0  28557-3 0  9998
2 51465  53.2182   0.8015 0001366  82.9692 277.1456 15.08851889 67198
STARLINK-3178           
1 51467U 22010M   23105.09433794  .00008660  00000+0  56123-3 0  9997
2 51467  53.2179 355.8276 0001165  85.4697 274.6428 15.08858887 67352
STARLINK-3174           
1 51468U 22010N   23104.11273842  .00008611  00000+0  55822-3 0  9997
2 51468  53.2177   0.2434 0000983  94.1885 265.9219 15.08854290 66401
STARLINK-3182           
1 51469U 22010P   23104.98762213  .00003059  00000+0  21021-3 0  9993
2 51469  53.2179 356.3070 0001176 112.7738 247.3378 15.08840361 67342
STARLINK-3415           
1 51472U 22010S   23104.10809881  .00003951  00000+0  26615-3 0  9999
2 51472  53.2179   0.2532 0001023 102.8774 257.2332 15.08847437 66716
COSMOS 2553             
1 51511U 22011A   23104.81313965 -.00000016  00000+0  53086-3 0  9997
2 51511  67.0911 300.6991 0003680 275.8191  84.2333 11.32875604 49112
ONEWEB-0410             
1 51622U 22012A   23104.89852574  .00000049  00000+0  94220-4 0  9994
2 51622  87.9189 236.1751 0000817  56.4786 303.6423 13.17650326 62325
ONEWEB-0411             
1 51623U 22012B   23104.98345336  .00000440  00000+0  12244-2 0  9997
2 51623  87.8723 266.5421 0001809  80.1986 279.9346 13.10371135 58750
ONEWEB-0415             
1 51624U 22012C   23104.52218360  .00000576  00000+0  16133-2 0  9995
2 51624  87.8767 266.6364 0002214  87.7050 272.4331 13.10379626 57419
ONEWEB-0416             
1 51625U 22012D   23104.45675168  .00000057  00000+0  12573-3 0  9990
2 51625  87.8763 266.6384 0001872 101.2249 258.9088 13.10369555 57440
ONEWEB-0422             
1 51626U 22012E   23105.05931861 -.00000120  00000+0 -34199-3 0  9994
2 51626  87.9150 236.1492 0002262 126.2011 233.9330 13.17651042 62443
ONEWEB-0423             
1 51627U 22012F   23104.36919822  .00000058  00000+0  11729-3 0  9993
2 51627  87.9130 236.2210 0001687  99.6444 260.4878 13.17652117 60965
ONEWEB-0425             
1 51628U 22012G   23104.46607521 -.00000374  00000+0 -11072-2 0  9998
2 51628  87.8759 266.6342 0001114 107.6826 252.4423 13.10367572 57441
ONEWEB-0428             
1 51629U 22012H   23104.44738437  .00000513  00000+0  14318-2 0  9997
2 51629  87.8762 266.6467 0002105 109.7199 250.4155 13.10371970 57404
ONEWEB-0431             
1 51630U 22012J   23104.47541955 -.00000722  00000+0 -21038-2 0  9990
2 51630  87.8752 266.6394 0002588  94.1515 265.9908 13.10373620 57465
ONEWEB-0434             
1 51631U 22012K   23104.46920389 -.00000466  00000+0 -13717-2 0  9992
2 51631  87.8768 266.6502 0001950 110.2544 249.8793 13.10370851 57442
ONEWEB-0435             
1 51632U 22012L   23104.47853741 -.00000512  00000+0 -15027-2 0  9999
2 51632  87.8768 266.6411 0002294 111.9478 248.1893 13.10373996 57433
ONEWEB-0436             
1 51633U 22012M   23104.44066461  .00000104  00000+0  23448-3 0  9994
2 51633  87.9188 236.2600 0001956 111.6664 248.4676 13.17652513 60957
ONEWEB-0438             
1 51634U 22012N   23104.46140127 -.00000158  00000+0 -48831-3 0  9993
2 51634  87.8762 266.6444 0001458  97.9914 262.1378 13.10368924 57466
ONEWEB-0439             
1 51635U 22012P   23104.46451965 -.00000294  00000+0 -87867-3 0  9992
2 51635  87.8739 266.6371 0001825  99.1997 260.9337 13.10369211 57442
ONEWEB-0442             
1 51636U 22012Q   23104.35580974  .00000051  00000+0  98652-4 0  9998
2 51636  87.9156 236.2637 0001514  68.9330 291.1963 13.17649858 60939
ONEWEB-0443             
1 51637U 22012R   23104.37366153  .00000093  00000+0  20675-3 0  9997
2 51637  87.9185 236.2618 0001936 125.4175 234.7137 13.17651993 60989
ONEWEB-0444             
1 51638U 22012S   23104.45517014  .00000156  00000+0  40950-3 0  9999
2 51638  87.8765 266.6521 0001875 107.6609 252.4723 13.10370570 57457
ONEWEB-0445             
1 51639U 22012T   23104.47697826 -.00000556  00000+0 -16296-2 0  9993
2 51639  87.8751 266.6554 0001655  77.2927 282.8385 13.10375658 57464
ONEWEB-0446             
1 51640U 22012U   23104.91178425  .00000762  00000+0  21457-2 0  9995
2 51640  87.8763 266.5564 0001928  91.4057 268.7292 13.10369206 58805
ONEWEB-0448             
1 51641U 22012V   23104.99278966  .00000061  00000+0  13800-3 0  9991
2 51641  87.8762 266.5427 0001798 108.5671 251.5652 13.10369552 58770
ONEWEB-0449             
1 51642U 22012W   23104.92110984 -.00000196  00000+0 -59673-3 0  9999
2 51642  87.8764 266.5560 0001470  96.5544 263.5751 13.10367002 58785
ONEWEB-0451             
1 51643U 22012X   23104.36026987  .00000100  00000+0  22411-3 0  9990
2 51643  87.9154 236.2839 0001662 114.4401 245.6904 13.17649793 60925
ONEWEB-0452             
1 51644U 22012Y   23104.43397830  .00000109  00000+0  24830-3 0  9993
2 51644  87.9154 236.2495 0001185 108.3155 251.8105 13.17649930 60949
ONEWEB-0455             
1 51645U 22012Z   23104.91745687  .00000591  00000+0  25717-3 0  9994
2 51645  87.5320 238.4213 0015174 299.8865  60.0818 14.22462980 62555
ONEWEB-0456             
1 51646U 22012AA  23104.93045415 -.00000590  00000+0 -17256-2 0  9998
2 51646  87.8750 266.5644 0002130  97.2145 262.9225 13.10367730 58817
ONEWEB-0457             
1 51647U 22012AB  23104.45049894  .00000371  00000+0  10254-2 0  9997
2 51647  87.8762 266.6405 0001207  83.3089 276.8176 13.10371126 57467
ONEWEB-0458             
1 51648U 22012AC  23104.92888890 -.00000516  00000+0 -15158-2 0  9998
2 51648  87.8766 266.5552 0001855 111.9218 248.2106 13.10372753 58784
ONEWEB-0461             
1 51649U 22012AD  23104.90969247 -.00000012  00000+0 -64305-4 0  9994
2 51649  87.9203 236.0795 0001488  98.3943 261.7357 13.17650489 62514
ONEWEB-0463             
1 51650U 22012AE  23104.43845808  .00000063  00000+0  12923-3 0  9992
2 51650  87.9143 236.2648 0001580  95.5760 264.5551 13.17653102 60944
ONEWEB-0464             
1 51651U 22012AF  23104.46765655 -.00000391  00000+0 -11574-2 0  9993
2 51651  87.8764 266.6356 0002243 107.4193 252.7180 13.10365374 57448
ONEWEB-0468             
1 51652U 22012AG  23104.47386492 -.00000567  00000+0 -16611-2 0  9995
2 51652  87.8743 266.6401 0001738 102.6525 257.4796 13.10368072 57422
ONEWEB-0473             
1 51653U 22012AH  23104.45984134 -.00000096  00000+0 -31006-3 0  9994
2 51653  87.8763 266.6355 0001860 106.6423 253.4908 13.10370430 57422
ONEWEB-0474             
1 51654U 22012AJ  23104.45205744  .00000333  00000+0  91660-3 0  9992
2 51654  87.8729 266.6095 0002053 109.2942 250.8407 13.10370549 57411
ONEWEB-0475             
1 51655U 22012AK  23104.90298540  .00000029  00000+0  42099-4 0  9994
2 51655  87.9143 236.1485 0001775 120.1482 239.9825 13.17651560 62318
EOS-4                   
1 51656U 22013A   23105.28081516 -.00000912  00000+0 -48443-4 0  9993
2 51656  97.5176 113.3510 0002364 105.0414  25.3534 15.12719434 64283
INSPIRESAT-1            
1 51657U 22013B   23104.46568039  .00008593  00000+0  43677-3 0  9997
2 51657  97.5537 115.7649 0009346 221.9501 138.1017 15.17074391 64242
INS-2TD                 
1 51658U 22013C   23103.99578318  .00017924  00000+0  82149-3 0  9991
2 51658  97.5514 116.0093 0008325 221.3124 138.7482 15.20493097 64228
STARLINK-3528           
1 51714U 22016A   23104.97198101  .00000853  00000+0  71676-4 0  9991
2 51714  53.2167  46.3750 0001096  98.5099 261.6017 15.08840192 64501
STARLINK-3533           
1 51715U 22016B   23105.22589113  .00001457  00000+0  10958-3 0  9994
2 51715  53.2164  45.2337 0000951 101.2240 258.8859 15.08853039 64615
STARLINK-3543           
1 51716U 22016C   23105.23324910  .00000433  00000+0  45310-4 0  9992
2 51716  53.2173  45.2016 0001384  92.7180 267.3971 15.08849652 64546
STARLINK-3445           
1 51717U 22016D   23104.16973896  .00006061  00000+0  39862-3 0  9994
2 51717  53.2179  49.9764 0001108  84.9059 275.2060 15.08835310 63324
STARLINK-3546           
1 51718U 22016E   23105.28109706  .00004531  00000+0  30246-3 0  9997
2 51718  53.2177  44.9869 0001266  80.5914 279.5221 15.08852831 64549
STARLINK-3540           
1 51719U 22016F   23105.22317406  .00002020  00000+0  14490-3 0  9994
2 51719  53.2169  45.2538 0001062  96.4687 263.6426 15.08848606 64541
STARLINK-3526           
1 51720U 22016G   23104.94349600  .00001421  00000+0  10735-3 0  9997
2 51720  53.2182  46.4783 0001261 101.0993 259.0141 15.08836371 64490
STARLINK-3524           
1 51721U 22016H   23105.21948887  .00004443  00000+0  29687-3 0  9994
2 51721  53.2179  45.2734 0001134  83.0409 277.0712 15.08860711 64602
STARLINK-3535           
1 51722U 22016J   23105.00509935  .00001383  00000+0  10495-3 0  9996
2 51722  53.2172  46.2290 0001384 102.5578 257.5569 15.08846564 64507
